GPS BIIF-6  (PRN 06)    
1 39741U 14026A   26180.42650176 -.00000093  00000+0  00000+0 0  9996
2 39741  56.4919 331.0412 0038111 326.2826  33.4667  2.00560271 88780
GPS BIIF-7  (PRN 09)    
1 40105U 14045A   26179.52112597 -.00000052  00000+0  00000+0 0  9997
2 40105  55.3602  88.0134 0033785 118.2932 242.0599  2.00559298 86307
GPS BIIF-8  (PRN 03)    
1 40294U 14068A   26178.89160175 -.00000074  00000+0  00000+0 0  9999
2 40294  56.9949  30.5424 0067270  71.0132 289.7753  2.00577023 85423
GPS BIIF-9  (PRN 26)    
1 40534U 15013A   26179.53038581  .00000079  00000+0  00000+0 0  9998
2 40534  53.1672 203.7083 0109825  40.2188 320.6559  2.00550799 82055
GPS BIIF-10 (PRN 08)    
1 40730U 15033A   26179.68877973 -.00000014  00000+0  00000+0 0  9990
2 40730  53.9734 266.6121 0115141  30.2336 330.4845  2.00555814 80220
GPS BIIF-11 (PRN 10)    
1 41019U 15062A   26177.75006963 -.00000080  00000+0  00000+0 0  9995
2 41019  56.9659  30.4428 0112188 230.9710 128.0791  2.00567519 78021
GPS BIIF-12 (PRN 32)    
1 41328U 16007A   26179.33753677 -.00000053  00000+0  00000+0 0  9995
2 41328  55.5304  89.0177 0095604 247.1405 111.8582  2.00551379 76068
GPS BIII-1  (PRN 04)    
1 43873U 18109A   26180.00003388 -.00000044  00000+0  00000+0 0  9990
2 43873  55.6885  91.7208 0038499 197.6840 175.4799  2.00562422 55318
GPS BIII-2  (PRN 18)    
1 44506U 19056A   26180.36141240 -.00000095  00000+0  00000+0 0  9991
2 44506  55.6308 330.6592 0062613 197.7564 340.3084  2.00570210 50311
GPS BIII-3  (PRN 23)    
1 45854U 20041A   26180.36344941 -.00000069  00000+0  00000+0 0  9998
2 45854  56.6709  28.4721 0065346 204.0154 273.4058  2.00558844 44288
GPS BIII-4  (PRN 14)    
1 46826U 20078A   26180.23933627  .00000075  00000+0  00000+0 0  9995
2 46826  53.9788 210.2896 0073938 207.5308 157.0262  2.00565188 41756
GPS BIII-5  (PRN 11)    
1 48859U 21054A   26179.72886770 -.00000098  00000+0  00000+0 0  9992
2 48859  55.1686 331.9958 0025783 228.3278 313.9526  2.00568605 36989
GPS BIII-6  (PRN 28)    
1 55268U 23009A   26178.92981966  .00000027  00000+0  00000+0 0  9991
2 55268  55.1241 148.0967 0006263 317.3274  46.4275  2.00570960 25469
GPS BIII-7  (PRN 01)    
1 62339U 24242A   26177.06783932 -.00000106  00000+0  00000+0 0  9994
2 62339  54.8454 333.8210 0017666   4.5395 177.0108  2.00572026 11434
GPS BIII-8  (PRN 21)    
1 64202U 25116A   26179.80622449 -.00000074  00000+0  00000+0 0  9999
2 64202  55.2421  30.6628 0008217 343.0190 198.8516  2.00575378  8102
